[{"OBJECT_NAME":"OBJECT H","OBJECT_ID":"2023-085H","EPOCH":"2026-03-09T22:31:53.157216","MEAN_MOTION":15.98088427,"ECCENTRICITY":0.00067726,"INCLINATION":97.4609,"RA_OF_ASC_NODE":195.6385,"ARG_OF_PERICENTER":287.7557,"MEAN_ANOMALY":72.298,"EPHEMERIS_TYPE":0,"CLASSIFICATION_TYPE":"U","NORAD_CAT_ID":57011,"ELEMENT_SET_NO":999,"REV_AT_EPOCH":15261,"BSTAR":0.001683407,"MEAN_MOTION_DOT":0.00765063,"MEAN_MOTION_DDOT":0.00026531755},{"OBJECT_NAME":"CZ-2D DEB","OBJECT_ID":"2005-024J","EPOCH":"2026-03-07T08:50:45.155616","MEAN_MOTION":15.95120785,"ECCENTRICITY":0.00039538,"INCLINATION":97.1457,"RA_OF_ASC_NODE":108.8537,"ARG_OF_PERICENTER":148.3767,"MEAN_ANOMALY":211.7747,"EPHEMERIS_TYPE":0,"CLASSIFICATION_TYPE":"U","NORAD_CAT_ID":31409,"ELEMENT_SET_NO":999,"REV_AT_EPOCH":11805,"BSTAR":0.00085825506,"MEAN_MOTION_DOT":0.00332133,"MEAN_MOTION_DDOT":4.5289476e-5}]
